{"type": "FeatureCollection", "features": [ {"type": "Feature", "properties": {"norad_id": 44804, "name": "CARTOSAT-3", "group": "resource", "lat": 8.227628991063439, "lon": -119.27464354294595, "alt_km": 516.1748962222409, "timestamp": "2025-12-26T05:31:12.157643+00:00", "meta": {"OBJECT_NAME": "CARTOSAT-3", "OBJECT_ID": "2019-081A", "EPOCH": "2025-12-25T22:26:42.961344", "MEAN_MOTION": 15.19260006, "ECCENTRICITY": 0.00136252, "INCLINATION": 97.4562, "RA_OF_ASC_NODE": 59.3493, "ARG_OF_PERICENTER": 41.5771, "MEAN_ANOMALY": 318.6497, "EPHEMERIS_TYPE": 0, "CLASSIFICATION_TYPE": "U", "NORAD_CAT_ID": 44804, "ELEMENT_SET_NO": 999, "REV_AT_EPOCH": 33716, "BSTAR": 0.00016898006, "MEAN_MOTION_DOT": 3.501e-05, "MEAN_MOTION_DDOT": 0}, "tle": {"line1": "1 44804U 19081A   25359.93521946  .00003501  00000+0  16898-3 0  9995", "line2": "2 44804  97.4562  59.3493 0013625  41.5771 318.6497 15.19260006337168"}}, "geometry": {"type": "Point", "coordinates": [-119.27464354294595, 8.227628991063439]}}, {"type": "Feature", "properties": {"norad_id": 44819, "name": "GAOFEN-12 01", "group": "resource", "lat": -26.2940797985762, "lon": -177.7329410309762, "alt_km": 631.559226847231, "timestamp": "2025-12-26T05:31:12.157653+00:00", "meta": {"OBJECT_NAME": "GAOFEN-12 01", "OBJECT_ID": "2019-082A", "EPOCH": "2025-12-25T23:43:29.811936", "MEAN_MOTION": 14.80672257, "ECCENTRICITY": 0.00022823, "INCLINATION": 97.8125, "RA_OF_ASC_NODE": 5.9218, "ARG_OF_PERICENTER": 175.9733, "MEAN_ANOMALY": 184.1498, "EPHEMERIS_TYPE": 0, "CLASSIFICATION_TYPE": "U", "NORAD_CAT_ID": 44819, "ELEMENT_SET_NO": 999, "REV_AT_EPOCH": 32846, "BSTAR": 7.0851199e-05, "MEAN_MOTION_DOT": 4.94e-06, "MEAN_MOTION_DDOT": 0}, "tle": {"line1": "1 44819U 19082A   25359.98853949  .00000494  00000+0  70851-4 0  9996", "line2": "2 44819  97.8125   5.9218 0002282 175.9733 184.1498 14.80672257328464"}}, "geometry": {"type": "Point", "coordinates": [-177.7329410309762, -26.2940797985762]}}, {"type": "Feature", "properties": {"norad_id": 44873, "name": "CSG-1", "group": "resource", "lat": 29.281084278510967, "lon": 176.8964521476253, "alt_km": 620.5334163208217, "timestamp": "2025-12-26T05:31:12.157663+00:00", "meta": {"OBJECT_NAME": "CSG-1", "OBJECT_ID": "2019-092A", "EPOCH": "2025-12-25T22:54:21.614976", "MEAN_MOTION": 14.8216176, "ECCENTRICITY": 0.00014562, "INCLINATION": 97.8805, "RA_OF_ASC_NODE": 181.0796, "ARG_OF_PERICENTER": 85.2924, "MEAN_ANOMALY": 274.8455, "EPHEMERIS_TYPE": 0, "CLASSIFICATION_TYPE": "U", "NORAD_CAT_ID": 44873, "ELEMENT_SET_NO": 999, "REV_AT_EPOCH": 32581, "BSTAR": 8.3029423e-05, "MEAN_MOTION_DOT": 6.09e-06, "MEAN_MOTION_DDOT": 0}, "tle": {"line1": "1 44873U 19092A   25359.95441684  .00000609  00000+0  83029-4 0  9992", "line2": "2 44873  97.8805 181.0796 0001456  85.2924 274.8455 14.82161760325813"}}, "geometry": {"type": "Point", "coordinates": [176.8964521476253, 29.281084278510967]}}, {"type": "Feature", "properties": {"norad_id": 46277, "name": "NEMO-HD", "group": "resource", "lat": 44.184555709560264, "lon": -113.76694068120172, "alt_km": 440.5904080276305, "timestamp": "2025-12-26T05:31:12.157673+00:00", "meta": {"OBJECT_NAME": "NEMO-HD", "OBJECT_ID": "2020-061F", "EPOCH": "2025-12-25T22:41:58.023744", "MEAN_MOTION": 15.4059647, "ECCENTRICITY": 0.00010264, "INCLINATION": 97.2188, "RA_OF_ASC_NODE": 58.8759, "ARG_OF_PERICENTER": 53.225, "MEAN_ANOMALY": 306.9091, "EPHEMERIS_TYPE": 0, "CLASSIFICATION_TYPE": "U", "NORAD_CAT_ID": 46277, "ELEMENT_SET_NO": 999, "REV_AT_EPOCH": 29527, "BSTAR": 0.00026119081, "MEAN_MOTION_DOT": 0.00010547, "MEAN_MOTION_DDOT": 0}, "tle": {"line1": "1 46277U 20061F   25359.94581046  .00010547  00000+0  26119-3 0  9994", "line2": "2 46277  97.2188  58.8759 0001026  53.2250 306.9091 15.40596470295275"}}, "geometry": {"type": "Point", "coordinates": [-113.76694068120172, 44.184555709560264]}}, {"type": "Feature", "properties": {"norad_id": 46984, "name": "SENTINEL-6A", "group": "resource", "lat": 19.438673329113808, "lon": 143.31683250520868, "alt_km": 1339.094184200324, "timestamp": "2025-12-26T05:31:12.157683+00:00", "meta": {"OBJECT_NAME": "SENTINEL-6A", "OBJECT_ID": "2020-086A", "EPOCH": "2025-12-25T18:09:57.449088", "MEAN_MOTION": 12.80930775, "ECCENTRICITY": 0.00077549, "INCLINATION": 66.0401, "RA_OF_ASC_NODE": 135.2711, "ARG_OF_PERICENTER": 269.4393, "MEAN_ANOMALY": 90.5733, "EPHEMERIS_TYPE": 0, "CLASSIFICATION_TYPE": "U", "NORAD_CAT_ID": 46984, "ELEMENT_SET_NO": 999, "REV_AT_EPOCH": 23811, "BSTAR": 4.727934e-05, "MEAN_MOTION_DOT": -5e-07, "MEAN_MOTION_DDOT": 0}, "tle": {"line1": "1 46984U 20086A   25359.75691492 -.00000050  00000+0  47279-4 0  9992", "line2": "2 46984  66.0401 135.2711 0007754 269.4393  90.5733 12.80930775238113"}}, "geometry": {"type": "Point", "coordinates": [143.31683250520868, 19.438673329113808]}}, {"type": "Feature", "properties": {"norad_id": 48079, "name": "GAOFEN-12 02", "group": "resource", "lat": -38.46847015809359, "lon": 167.76767143565155, "alt_km": 635.6392146115932, "timestamp": "2025-12-26T05:31:12.157693+00:00", "meta": {"OBJECT_NAME": "GAOFEN-12 02", "OBJECT_ID": "2021-026A", "EPOCH": "2025-12-25T23:40:10.271136", "MEAN_MOTION": 14.80690282, "ECCENTRICITY": 0.00035394, "INCLINATION": 97.9858, "RA_OF_ASC_NODE": 353.9291, "ARG_OF_PERICENTER": 74.5205, "MEAN_ANOMALY": 285.6398, "EPHEMERIS_TYPE": 0, "CLASSIFICATION_TYPE": "U", "NORAD_CAT_ID": 48079, "ELEMENT_SET_NO": 999, "REV_AT_EPOCH": 25613, "BSTAR": 7.3952769e-05, "MEAN_MOTION_DOT": 5.16e-06, "MEAN_MOTION_DDOT": 0}, "tle": {"line1": "1 48079U 21026A   25359.98622999  .00000516  00000+0  73953-4 0  9999", "line2": "2 48079  97.9858 353.9291 0003539  74.5205 285.6398 14.80690282256139"}}, "geometry": {"type": "Point", "coordinates": [167.76767143565155, -38.46847015809359]}}, {"type": "Feature", "properties": {"norad_id": 48268, "name": "PLEIADES NEO 3", "group": "resource", "lat": -26.19921738280418, "lon": 76.3919538434018, "alt_km": 630.176324342211, "timestamp": "2025-12-26T05:31:12.157703+00:00", "meta": {"OBJECT_NAME": "PLEIADES NEO 3", "OBJECT_ID": "2021-034A", "EPOCH": "2025-12-25T23:09:22.082688", "MEAN_MOTION": 14.81671828, "ECCENTRICITY": 0.00013492, "INCLINATION": 97.8942, "RA_OF_ASC_NODE": 72.2159, "ARG_OF_PERICENTER": 90.1578, "MEAN_ANOMALY": 269.979, "EPHEMERIS_TYPE": 0, "CLASSIFICATION_TYPE": "U", "NORAD_CAT_ID": 48268, "ELEMENT_SET_NO": 999, "REV_AT_EPOCH": 25200, "BSTAR": 2.0958615e-05, "MEAN_MOTION_DOT": 1.13e-06, "MEAN_MOTION_DDOT": 0}, "tle": {"line1": "1 48268U 21034A   25359.96483892  .00000113  00000+0  20959-4 0  9994", "line2": "2 48268  97.8942  72.2159 0001349  90.1578 269.9790 14.81671828252009"}}, "geometry": {"type": "Point", "coordinates": [76.3919538434018, -26.19921738280418]}}, {"type": "Feature", "properties": {"norad_id": 49070, "name": "PLEIADES NEO 4", "group": "resource", "lat": 25.89285038632832, "lon": -103.66468937532665, "alt_km": 622.828289039594, "timestamp": "2025-12-26T05:31:12.157716+00:00", "meta": {"OBJECT_NAME": "PLEIADES NEO 4", "OBJECT_ID": "2021-073E", "EPOCH": "2025-12-25T22:20:43.621152", "MEAN_MOTION": 14.81671141, "ECCENTRICITY": 0.00013665, "INCLINATION": 97.8943, "RA_OF_ASC_NODE": 72.1787, "ARG_OF_PERICENTER": 88.4676, "MEAN_ANOMALY": 271.6693, "EPHEMERIS_TYPE": 0, "CLASSIFICATION_TYPE": "U", "NORAD_CAT_ID": 49070, "ELEMENT_SET_NO": 999, "REV_AT_EPOCH": 23571, "BSTAR": -9.5364176e-05, "MEAN_MOTION_DOT": -8.02e-06, "MEAN_MOTION_DDOT": 0}, "tle": {"line1": "1 49070U 21073E   25359.93106043 -.00000802  00000+0 -95364-4 0  9995", "line2": "2 49070  97.8943  72.1787 0001366  88.4676 271.6693 14.81671141235715"}}, "geometry": {"type": "Point", "coordinates": [-103.66468937532665, 25.89285038632832]}}, {"type": "Feature", "properties": {"norad_id": 49260, "name": "LANDSAT 9", "group": "resource", "lat": 58.253197841894995, "lon": 54.65461484966784, "alt_km": 696.2278038501499, "timestamp": "2025-12-26T05:31:12.157726+00:00", "meta": {"OBJECT_NAME": "LANDSAT 9", "OBJECT_ID": "2021-088A", "EPOCH": "2025-12-25T19:21:38.919744", "MEAN_MOTION": 14.57111045, "ECCENTRICITY": 0.0001112, "INCLINATION": 98.2077, "RA_OF_ASC_NODE": 67.7273, "ARG_OF_PERICENTER": 93.391, "MEAN_ANOMALY": 266.7416, "EPHEMERIS_TYPE": 0, "CLASSIFICATION_TYPE": "U", "NORAD_CAT_ID": 49260, "ELEMENT_SET_NO": 999, "REV_AT_EPOCH": 22575, "BSTAR": 0.00011045343, "MEAN_MOTION_DOT": 4.52e-06, "MEAN_MOTION_DDOT": 0}, "tle": {"line1": "1 49260U 21088A   25359.80670046  .00000452  00000+0  11045-3 0  9999", "line2": "2 49260  98.2077  67.7273 0001112  93.3910 266.7416 14.57111045225750"}}, "geometry": {"type": "Point", "coordinates": [54.65461484966784, 58.253197841894995]}}, {"type": "Feature", "properties": {"norad_id": 51444, "name": "CSG-2", "group": "resource", "lat": -29.47571074944246, "lon": -3.1404993186044066, "alt_km": 629.0988114447055, "timestamp": "2025-12-26T05:31:12.157736+00:00", "meta": {"OBJECT_NAME": "CSG-2", "OBJECT_ID": "2022-008A", "EPOCH": "2025-12-25T23:42:58.629312", "MEAN_MOTION": 14.82156312, "ECCENTRICITY": 0.00014442, "INCLINATION": 97.8805, "RA_OF_ASC_NODE": 181.1115, "ARG_OF_PERICENTER": 82.1491, "MEAN_ANOMALY": 277.9886, "EPHEMERIS_TYPE": 0, "CLASSIFICATION_TYPE": "U", "NORAD_CAT_ID": 51444, "ELEMENT_SET_NO": 999, "REV_AT_EPOCH": 21093, "BSTAR": 6.6530239e-05, "MEAN_MOTION_DOT": 4.78e-06, "MEAN_MOTION_DDOT": 0}, "tle": {"line1": "1 51444U 22008A   25359.98817858  .00000478  00000+0  66530-4 0  9990", "line2": "2 51444  97.8805 181.1115 0001444  82.1491 277.9886 14.82156312210938"}}, "geometry": {"type": "Point", "coordinates": [-3.1404993186044066, -29.47571074944246]}}]}